NORAD_CAT_ID,OBJECT_NAME,OBJECT_TYPE,EPOCH,MEAN_MOTION,ECCENTRICITY,INCLINATION,RA_OF_ASC_NODE,ARG_OF_PERICENTER,MEAN_ANOMALY,BSTAR,MEAN_MOTION_DOT,MEAN_MOTION_DDOT,TLE_LINE0,TLE_LINE1,TLE_LINE2,SEMIMAJOR_AXIS,PERIOD,APOGEE,PERIGEE,DECAYED
56458.0,STARLINK-6050,PAYLOAD,2023-07-13 18:00:00,15.03085288,0.0003157,70.0009,70.1097,271.9744,180.4457,-0.078803,-0.00990689,0.0,0 STARLINK-6050,1 56458U 23064L   23194.75001157 -.00990689  00000-0 -78803-1 0  9998,2 56458  70.0009  70.1097 0003157 271.9744 180.4457 15.03085288 10314,6935.526,95.803,559.581,555.202,0.0
56458.0,STARLINK-6050,PAYLOAD,2023-07-14 04:00:01,15.02255409,0.0003067,70.0005,69.052,276.4147,269.3825,-0.077578,-0.00956401,0.0,0 STARLINK-6050,1 56458U 23064L   23195.16668981 -.00956401  00000-0 -77578-1 0  9990,2 56458  70.0005  69.0520 0003067 276.4147 269.3825 15.02255409 10370,6938.08,95.856,562.073,557.817,0.0
56458.0,STARLINK-6050,PAYLOAD,2023-07-15 06:00:02,15.00127942,0.0003111,70.0004,66.3087,274.1441,4.5529,-0.081027,-0.00945186,0.0,0 STARLINK-6050,1 56458U 23064L   23196.25002315 -.00945186  00000-0 -81027-1 0  9996,2 56458  70.0004  66.3087 0003111 274.1441   4.5529 15.00127942 10535,6944.638,95.992,568.664,564.343,0.0
56458.0,STARLINK-6050,PAYLOAD,2023-07-15 14:00:01,14.9931843,0.0002934,70.0007,65.4665,270.2737,7.6051,-0.0008768,-0.00010811,0.0,0 STARLINK-6050,1 56458U 23064L   23196.58334491 -.00010811  00000-0 -87680-3 0  9996,2 56458  70.0007  65.4665 0002934 270.2737   7.6051 14.99318430 10587,6947.138,96.044,571.041,566.965,0.0
56458.0,STARLINK-6050,PAYLOAD,2023-07-16 22:00:00,14.99311933,0.0002941,70.0002,62.0995,276.8066,355.6851,-0.0024941,-0.00030488,0.0,0 STARLINK-6050,1 56458U 23064L   23197.91667824 -.00030488  00000-0 -24941-2 0  9995,2 56458  70.0002  62.0995 0002941 276.8066 355.6851 14.99311933 10783,6947.158,96.044,571.066,566.98,0.0
56458.0,STARLINK-6050,PAYLOAD,2023-07-17 14:00:01,14.99288535,0.0002945,70.0,60.4158,269.7844,0.0597,0.0033311,0.0004089,0.0,0 STARLINK-6050,1 56458U 23064L   23198.58335648  .00040890  00000-0  33311-2 0  9992,2 56458  70.0000  60.4158 0002945 269.7844   0.0597 14.99288535 10883,6947.23,96.046,571.141,567.049,0.0
56458.0,STARLINK-6050,PAYLOAD,2023-07-18 06:00:00,14.99310826,0.0002987,69.9996,58.7319,272.8015,354.2851,-0.0037392,-0.00045563,0.0,0 STARLINK-6050,1 56458U 23064L   23199.25001157 -.00045563  00000-0 -37392-2 0  9999,2 56458  69.9996  58.7319 0002987 272.8015 354.2851 14.99310826 10981,6947.161,96.044,571.102,566.951,0.0
56458.0,STARLINK-6050,PAYLOAD,2023-07-18 22:00:00,14.99302474,0.0003047,69.9998,57.0481,271.1992,353.1762,-0.001335,-0.00016392,0.0,0 STARLINK-6050,1 56458U 23064L   23199.91667824 -.00016392  00000-0 -13350-2 0  9997,2 56458  69.9998  57.0481 0003047 271.1992 353.1762 14.99302474 11080,6947.187,96.045,571.169,566.935,0.0
56458.0,STARLINK-6050,PAYLOAD,2023-07-20 14:27:21,14.99302929,0.0002998,69.9989,52.7924,267.5585,92.5232,5.6917e-05,6.03e-06,0.0,0 STARLINK-6050,1 56458U 23064L   23201.60233461  .00000603  00000-0  56917-4 0  9997,2 56458  69.9989  52.7924 0002998 267.5585  92.5232 14.99302929 11345,6947.186,96.045,571.134,566.968,0.0
56458.0,STARLINK-6050,PAYLOAD,2023-07-24 00:07:02,14.99298636,0.0002724,69.9993,44.1984,267.8276,92.2572,-1.7683e-05,-3.1e-06,0.0,0 STARLINK-6050,1 56458U 23064L   23205.00489347 -.00000310  00000-0 -17683-4 0  9995,2 56458  69.9993  44.1984 0002724 267.8276  92.2572 14.99298636 11497,6947.199,96.045,570.956,567.172,0.0
56458.0,STARLINK-6050,PAYLOAD,2023-07-25 00:08:07,14.99300506,0.0002893,69.999,41.6713,267.9432,92.1396,4.4936e-05,4.56e-06,0.0,0 STARLINK-6050,1 56458U 23064L   23206.00564233  .00000456  00000-0  44936-4 0  9994,2 56458  69.9990  41.6713 0002893 267.9432  92.1396 14.99300506 11648,6947.193,96.045,571.068,567.048,0.0
56458.0,STARLINK-6050,PAYLOAD,2023-07-26 12:57:47,14.99299578,0.0003092,69.9988,37.7963,264.6909,95.3897,5.5413e-05,5.84e-06,0.0,0 STARLINK-6050,1 56458U 23064L   23207.54012795  .00000584  00000-0  55413-4 0  9999,2 56458  69.9988  37.7963 0003092 264.6909  95.3897 14.99299578 11875,6947.196,96.045,571.209,566.913,0.0
56458.0,STARLINK-6050,PAYLOAD,2023-07-27 00:10:16,14.99304824,0.0002998,69.9991,36.6172,263.835,96.2468,9.1301e-05,1.024e-05,0.0,0 STARLINK-6050,1 56458U 23064L   23208.00714090  .00001024  00000-0  91301-4 0  9994,2 56458  69.9991  36.6172 0002998 263.8350  96.2468 14.99304824 12308,6947.18,96.045,571.128,566.962,0.0
56458.0,STARLINK-6050,PAYLOAD,2023-07-27 11:22:47,14.99296625,0.0003003,69.9987,35.4363,269.1624,90.9191,-7.0263e-06,-1.8e-06,0.0,0 STARLINK-6050,1 56458U 23064L   23208.47416658 -.00000180  00000-0 -70263-5 0  9993,2 56458  69.9987  35.4363 0003003 269.1624  90.9191 14.99296625 12373,6947.205,96.045,571.157,566.984,0.0
56458.0,STARLINK-6050,PAYLOAD,2023-07-27 19:23:11,14.99192972,0.0001878,69.9986,34.5922,258.1237,101.9712,0.0014839,0.00018058,0.0,0 STARLINK-6050,1 56458U 23064L   23208.80777613  .00018058  00000-0  14839-2 0  9996,2 56458  69.9986  34.5922 0001878 258.1237 101.9712 14.99192972 12427,6947.526,96.052,570.695,568.086,0.0
56458.0,STARLINK-6050,PAYLOAD,2023-07-27 22:35:37,14.99058893,0.0002896,69.9989,34.2589,278.5343,81.5488,-0.0025505,-0.00030969,0.0,0 STARLINK-6050,1 56458U 23064L   23208.94140916 -.00030969  00000-0 -25505-2 0  9990,2 56458  69.9989  34.2589 0002896 278.5343  81.5488 14.99058893 12449,6947.94,96.06,571.817,567.793,0.0
56458.0,STARLINK-6050,PAYLOAD,2023-07-28 22:37:23,14.98743608,0.000262,69.9987,31.731,313.3792,46.7148,-0.0051748,-0.00061954,0.0,0 STARLINK-6050,1 56458U 23064L   23209.94263428 -.00061954  00000-0 -51748-2 0  9991,2 56458  69.9987  31.7310 0002620 313.3792  46.7148 14.98743608 12598,6948.914,96.08,572.6,568.959,0.0
56458.0,STARLINK-6050,PAYLOAD,2023-07-29 05:01:59,14.98698442,0.0002841,69.9981,31.0586,265.9718,94.1117,-0.0051161,-0.00061188,0.0,0 STARLINK-6050,1 56458U 23064L   23210.20971945 -.00061188  00000-0 -51161-2 0  9990,2 56458  69.9981  31.0586 0002841 265.9718  94.1117 14.98698442 12638,6949.054,96.083,572.893,568.945,0.0
56458.0,STARLINK-6050,PAYLOAD,2023-07-29 19:27:04,14.98614718,0.0002977,69.9996,29.5449,272.1118,87.97,-0.0044212,-0.00052838,0.0,0 STARLINK-6050,1 56458U 23064L   23210.81046658 -.00052838  00000-0 -44212-2 0  9992,2 56458  69.9996  29.5449 0002977 272.1118  87.9700 14.98614718 12720,6949.313,96.089,573.246,569.109,0.0
56458.0,STARLINK-6050,PAYLOAD,2023-07-30 14:00:01,14.98351314,0.0002869,70.0005,27.5951,269.9594,297.8188,-0.0025305,-0.00030173,0.0,0 STARLINK-6050,1 56458U 23064L   23211.58334491 -.00030173  00000-0 -25305-2 0  9992,2 56458  70.0005  27.5951 0002869 269.9594 297.8188 14.98351314 12836,6950.127,96.106,573.986,569.998,0.0
56458.0,STARLINK-6050,PAYLOAD,2023-07-31 14:00:01,14.98352753,0.0002953,70.0004,25.0731,268.3119,291.9093,-0.0024935,-0.00029737,0.0,0 STARLINK-6050,1 56458U 23064L   23212.58334491 -.00029737  00000-0 -24935-2 0  9995,2 56458  70.0004  25.0731 0002953 268.3119 291.9093 14.98352753 12988,6950.123,96.106,574.04,569.935,0.0
56458.0,STARLINK-6050,PAYLOAD,2023-08-01 17:56:58,14.98331922,0.000283,69.9991,22.1368,271.2108,88.8727,3.8689e-05,3.69e-06,0.0,0 STARLINK-6050,1 56458U 23064L   23213.74790417  .00000369  00000-0  38689-4 0  9999,2 56458  69.9991  22.1368 0002830 271.2108  88.8727 14.98331922 13162,6950.187,96.107,574.019,570.085,0.0
56458.0,STARLINK-6050,PAYLOAD,2023-08-02 17:58:59,14.98332848,0.0002873,69.9993,19.612,271.0277,89.0553,3.3099e-05,3.02e-06,0.0,0 STARLINK-6050,1 56458U 23064L   23214.74930273  .00000302  00000-0  33099-4 0  9993,2 56458  69.9993  19.6120 0002873 271.0277  89.0553 14.98332848 13318,6950.184,96.107,574.046,570.052,0.0
56458.0,STARLINK-6050,PAYLOAD,2023-08-03 18:01:00,14.98331492,0.0002833,69.9996,17.087,270.7735,89.3099,-1.4117e-05,-2.61e-06,0.0,0 STARLINK-6050,1 56458U 23064L   23215.75070310 -.00000261  00000-0 -14117-4 0  9998,2 56458  69.9996  17.0870 0002833 270.7735  89.3099 14.98331492 13464,6950.188,96.107,574.022,570.084,0.0
56458.0,STARLINK-6050,PAYLOAD,2023-08-04 10:02:22,14.98323954,0.0002726,70.0,15.404,270.3991,89.6856,-0.00012095,-1.536e-05,0.0,0 STARLINK-6050,1 56458U 23064L   23216.41831130 -.00001536  00000-0 -12095-3 0  9995,2 56458  70.0000  15.4040 0002726 270.3991  89.6856 14.98323954 13564,6950.212,96.107,573.971,570.182,0.0
56458.0,STARLINK-6050,PAYLOAD,2023-08-04 18:03:04,14.98297434,0.0002853,69.9999,14.5628,269.9373,90.1459,-0.00037279,-4.534e-05,0.0,0 STARLINK-6050,1 56458U 23064L   23216.75213827 -.00004534  00000-0 -37279-3 0  9991,2 56458  69.9999  14.5628 0002853 269.9373  90.1459 14.98297434 13614,6950.294,96.109,574.142,570.176,0.0
56458.0,STARLINK-6050,PAYLOAD,2023-08-05 10:04:24,14.98319237,0.0003481,69.9992,12.8784,279.1269,80.9496,-8.5028e-05,-1.107e-05,0.0,0 STARLINK-6050,1 56458U 23064L   23217.41972392 -.00001107  00000-0 -85028-4 0  9993,2 56458  69.9992  12.8784 0003481 279.1269  80.9496 14.98319237 13711,6950.226,96.108,574.511,569.672,0.0
56458.0,STARLINK-6050,PAYLOAD,2023-08-05 18:05:03,14.9832991,0.0002202,70.0014,12.0386,263.4381,96.6527,8.578e-05,9.31e-06,0.0,0 STARLINK-6050,1 56458U 23064L   23217.75351352  .00000931  00000-0  85780-4 0  9994,2 56458  70.0014  12.0386 0002202 263.4381  96.6527 14.98329910 13763,6950.193,96.107,573.589,570.528,0.0
56458.0,STARLINK-6050,PAYLOAD,2023-08-06 10:06:24,14.9831344,0.0002626,70.0006,10.355,271.7236,88.3622,0.00036612,4.276e-05,0.0,0 STARLINK-6050,1 56458U 23064L   23218.42111437  .00004276  00000-0  36612-3 0  9992,2 56458  70.0006  10.3550 0002626 271.7236  88.3622 14.98313440 13865,6950.244,96.108,573.934,570.284,0.0
56458.0,STARLINK-6050,PAYLOAD,2023-08-07 10:08:24,14.98348279,0.0003149,69.9997,7.8286,275.2068,84.8732,-3.3249e-05,-4.9e-06,0.0,0 STARLINK-6050,1 56458U 23064L   23219.42250745 -.00000490  00000-0 -33249-4 0  9999,2 56458  69.9997   7.8286 0003149 275.2068  84.8732 14.98348279 14010,6950.136,96.106,574.19,569.813,0.0
